[
    {
        "Altitude(m)": 553763.034499658,
        "Argument of Periapsis(deg)": 0.033114955553567506,
        "Eccentricity": 0.0,
        "Inclination(deg)": 53.0,
        "Latitude(deg)": 4.636568236900947,
        "Longitude(deg)": -2.4722775183060284,
        "Mean Anomaly(deg)": -185.90553566211207,
        "RAAN(deg)": 284.95071684264,
        "Satellite Name": "Starlink Shell 1 1261",
        "Satellite Number": 1261,
        "Semi-Major Axis(m)": 6931778.249405717,
        "Time(s)": 950
    },
    {
        "Altitude(m)": 553803.91217578,
        "Argument of Periapsis(deg)": 0.03346353403307874,
        "Eccentricity": 0.0,
        "Inclination(deg)": 53.0,
        "Latitude(deg)": 4.1334173906314735,
        "Longitude(deg)": -2.1346522353867927,
        "Mean Anomaly(deg)": -185.27870445855532,
        "RAAN(deg)": 284.9501980725626,
        "Satellite Name": "Starlink Shell 1 1261",
        "Satellite Number": 1261,
        "Semi-Major Axis(m)": 6931778.249405717,
        "Time(s)": 960
    },
    {
        "Altitude(m)": 553847.6059910579,
        "Argument of Periapsis(deg)": 0.03381211251258998,
        "Eccentricity": 0.0,
        "Inclination(deg)": 53.0,
        "Latitude(deg)": 3.6300870562202285,
        "Longitude(deg)": -1.7975099879658918,
        "Mean Anomaly(deg)": -184.65187325499863,
        "RAAN(deg)": 284.9496793024851,
        "Satellite Name": "Starlink Shell 1 1261",
        "Satellite Number": 1261,
        "Semi-Major Axis(m)": 6931778.249405717,
        "Time(s)": 970
    },
    {
        "Altitude(m)": 553894.1183793382,
        "Argument of Periapsis(deg)": 0.034160690992101214,
        "Eccentricity": 0.0,
        "Inclination(deg)": 53.0,
        "Latitude(deg)": 3.1266005037752573,
        "Longitude(deg)": -1.4607924586272518,
        "Mean Anomaly(deg)": -184.02504205144197,
        "RAAN(deg)": 284.94916053240763,
        "Satellite Name": "Starlink Shell 1 1261",
        "Satellite Number": 1261,
        "Semi-Major Axis(m)": 6931778.249405717,
        "Time(s)": 980
    },
    {
        "Altitude(m)": 553943.4504282728,
        "Argument of Periapsis(deg)": 0.034509269471612446,
        "Eccentricity": 0.0,
        "Inclination(deg)": 53.0,
        "Latitude(deg)": 2.6229809147200083,
        "Longitude(deg)": -1.124441013700549,
        "Mean Anomaly(deg)": -183.3982108478851,
        "RAAN(deg)": 284.9486417623302,
        "Satellite Name": "Starlink Shell 1 1261",
        "Satellite Number": 1261,
        "Semi-Major Axis(m)": 6931778.249405717,
        "Time(s)": 990
    }
]